$$SOE
2460154.500000000, A.D. 2023-Jul-29 00:00:00.0000, -3.518340179295073E+08, -2.073442092737443E+08, 1.641038699818175E+07,
2460161.500000000, A.D. 2023-Aug-05 00:00:00.0000, -3.459744069951943E+08, -2.171704645993673E+08, 1.429446284224702E+07,
2460168.500000000, A.D. 2023-Aug-12 00:00:00.0000, -3.398689161811050E+08, -2.268423576009930E+08, 1.216837895706478E+07,
2460175.500000000, A.D. 2023-Aug-19 00:00:00.0000, -3.335219976750877E+08, -2.363530888498789E+08, 1.003365070137106E+07,
2460182.500000000, A.D. 2023-Aug-26 00:00:00.0000, -3.269383412986289E+08, -2.456960299532207E+08, 7.891800290720835E+06,
2460189.500000000, A.D. 2023-Sep-02 00:00:00.0000, -3.201228664124532E+08, -2.548647337170160E+08, 5.744354343890995E+06,
2460196.500000000, A.D. 2023-Sep-09 00:00:00.0000, -3.130807132442020E+08, -2.638529439046237E+08, 3.592841417071015E+06,
2460203.500000000, A.D. 2023-Sep-16 00:00:00.0000, -3.058172335085202E+08, -2.726546046129543E+08, 1.438789515683666E+06,
2460210.500000000, A.D. 2023-Sep-23 00:00:00.0000, -2.983379799446266E+08, -2.812638689469332E+08, -7.162764210096896E+05,
2460217.500000000, A.D. 2023-Sep-30 00:00:00.0000, -2.906486951545183E+08, -2.896751057723226E+08, -2.870836924322337E+06,
2460224.500000000, A.D. 2023-Oct-07 00:00:00.0000, -2.827553021403765E+08, -2.978829050643835E+08, -5.023380108595684E+06,
2460231.500000000, A.D. 2023-Oct-14 00:00:00.0000, -2.746638955482053E+08, -3.058820851457981E+08, -7.172403848803028E+06,
2460238.500000000, A.D. 2023-Oct-21 00:00:00.0000, -2.663807304391694E+08, -3.136677001963196E+08, -9.316418179778680E+06,
2460245.500000000, A.D. 2023-Oct-28 00:00:00.0000, -2.579122100638700E+08, -3.212350457616329E+08, -1.145394759333105E+07,
2460252.500000000, A.D. 2023-Nov-04 00:00:00.0000, -2.492648739394323E+08, -3.285796630222926E+08, -1.358353317361407E+07,
2460259.500000000, A.D. 2023-Nov-11 00:00:00.0000, -2.404453861007455E+08, -3.356973424175016E+08, -1.570373462876485E+07,
2460266.500000000, A.D. 2023-Nov-18 00:00:00.0000, -2.314605233548438E+08, -3.425841266881468E+08, -1.781313223761952E+07,
2460273.500000000, A.D. 2023-Nov-25 00:00:00.0000, -2.223171635141649E+08, -3.492363133215056E+08, -1.991032871048887E+07,
2460280.500000000, A.D. 2023-Dec-02 00:00:00.0000, -2.130222736287085E+08, -3.556504564175237E+08, -2.199395096231845E+07,
2460287.500000000, A.D. 2023-Dec-09 00:00:00.0000, -2.035828981860925E+08, -3.618233680473656E+08, -2.406265180571248E+07,
2460294.500000000, A.D. 2023-Dec-16 00:00:00.0000, -1.940061470367807E+08, -3.677521191066009E+08, -2.611511158545710E+07,
2460301.500000000, A.D. 2023-Dec-23 00:00:00.0000, -1.842991827387081E+08, -3.734340389935601E+08, -2.815003972739226E+07,
2460308.500000000, A.D. 2023-Dec-30 00:00:00.0000, -1.744692087016510E+08, -3.788667130839701E+08, -3.016617599074601E+07,
2460315.500000000, A.D. 2024-Jan-06 00:00:00.0000, -1.645234599406846E+08, -3.840479803854992E+08, -3.216229145285958E+07,
2460322.500000000, A.D. 2024-Jan-13 00:00:00.0000, -1.544691933005270E+08, -3.889759332062353E+08, -3.413718966453010E+07,
2460329.500000000, A.D. 2024-Jan-20 00:00:00.0000, -1.443136759606347E+08, -3.936489157826741E+08, -3.608970783642852E+07,
2460336.500000000, A.D. 2024-Jan-27 00:00:00.0000, -1.340641742809704E+08, -3.980655212454593E+08, -3.801871781795025E+07,
2460343.500000000, A.D. 2024-Feb-03 00:00:00.0000, -1.237279434449090E+08, -4.022245879017485E+08, -3.992312690781063E+07,
2460350.500000000, A.D. 2024-Feb-10 00:00:00.0000, -1.133122176465928E+08, -4.061251951553264E+08, -4.180187854693037E+07,
2460357.500000000, A.D. 2024-Feb-17 00:00:00.0000, -1.028242007045377E+08, -4.097666590864624E+08, -4.365395290718627E+07,
2460364.500000000, A.D. 2024-Feb-24 00:00:00.0000, -9.227105708157957E+07, -4.131485277077639E+08, -4.547836738001549E+07,
2460371.500000000, A.D. 2024-Mar-02 00:00:00.0000, -8.165990329421923E+07, -4.162705759619207E+08, -4.727417697281414E+07,
2460378.500000000, A.D. 2024-Mar-09 00:00:00.0000, -7.099779958275597E+07, -4.191328005599292E+08, -4.904047463444987E+07,
2460385.500000000, A.D. 2024-Mar-16 00:00:00.0000, -6.029174145591332E+07, -4.217354144993358E+08, -5.077639153416473E+07,
2460392.500000000, A.D. 2024-Mar-23 00:00:00.0000, -4.954865122144639E+07, -4.240788401893789E+08, -5.248109719815147E+07,
2460399.500000000, A.D. 2024-Mar-30 00:00:00.0000, -3.877537174969006E+07, -4.261637012430114E+08, -5.415379930468321E+07,
2460406.500000000, A.D. 2024-Apr-06 00:00:00.0000, -2.797866221631482E+07, -4.279908163342559E+08, -5.579374344063795E+07,
2460413.500000000, A.D. 2024-Apr-13 00:00:00.0000, -1.716519227239474E+07, -4.295611943154391E+08, -5.740021308120367E+07,
2460420.500000000, A.D. 2024-Apr-20 00:00:00.0000, -6.341535591479468E+06, -4.308760279482450E+08, -5.897252949124229E+07,
2460427.500000000, A.D. 2024-Apr-27 00:00:00.0000, 4.485835693618834E+06, -4.319366868386006E+08, -6.051005145951352E+07,
2460434.500000000, A.D. 2024-May-04 00:00:00.0000, 1.531055575853151E+07, -4.327447103056528E+08, -6.201217493574956E+07,
2460441.500000000, A.D. 2024-May-11 00:00:00.0000, 2.612636930581012E+07, -4.333018003119470E+08, -6.347833260518631E+07,
2460448.500000000, A.D. 2024-May-18 00:00:00.0000, 3.692713532569255E+07, -4.336098144568571E+08, -6.490799341067427E+07,
2460455.500000000, A.D. 2024-May-25 00:00:00.0000, 4.770683043502807E+07, -4.336707590627236E+08, -6.630066202959785E+07,
2460462.500000000, A.D. 2024-Jun-01 00:00:00.0000, 5.845955186658838E+07, -4.334867824326568E+08, -6.765587832022983E+07,
2460469.500000000, A.D. 2024-Jun-08 00:00:00.0000, 6.917952036802305E+07, -4.330601683236050E+08, -6.897321676640660E+07,
2460476.500000000, A.D. 2024-Jun-15 00:00:00.0000, 7.986108342304465E+07, -4.323933291087400E+08, -7.025228591682392E+07,
2460483.500000000, A.D. 2024-Jun-22 00:00:00.0000, 9.049871780285850E+07, -4.314887974709048E+08, -7.149272763453245E+07,
2460490.500000000, A.D. 2024-Jun-29 00:00:00.0000, 1.010870293400143E+08, -4.303492184618006E+08, -7.269421611416358E+07,
2460497.500000000, A.D. 2024-Jul-06 00:00:00.0000, 1.116207525849891E+08, -4.289773444098970E+08, -7.385645711459160E+07,
2460504.500000000, A.D. 2024-Jul-13 00:00:00.0000, 1.220947523111218E+08, -4.273760298650492E+08, -7.497918735843840E+07,
2460511.500000000, A.D. 2024-Jul-20 00:00:00.0000, 1.325040248984722E+08, -4.255482254426767E+08, -7.606217382585433E+07,
2460518.500000000, A.D. 2024-Jul-27 00:00:00.0000, 1.428436989567507E+08, -4.234969715368876E+08, -7.710521296417060E+07,
2460525.500000000, A.D. 2024-Aug-03 00:00:00.0000, 1.531090354764154E+08, -4.212253922861484E+08, -7.810812987247300E+07,
2460532.500000000, A.D. 2024-Aug-10 00:00:00.0000, 1.632954276895556E+08, -4.187366898034627E+08, -7.907077748003674E+07,
2460539.500000000, A.D. 2024-Aug-17 00:00:00.0000, 1.733984007032452E+08, -4.160341386554465E+08, -7.999303572441062E+07,
2460546.500000000, A.D. 2024-Aug-24 00:00:00.0000, 1.834136109483009E+08, -4.131210806171523E+08, -8.087481073653713E+07,
2460553.500000000, A.D. 2024-Aug-31 00:00:00.0000, 1.933368455742401E+08, -4.100009197677103E+08, -8.171603405142379E+07,
2460560.500000000, A.D. 2024-Sep-07 00:00:00.0000, 2.031640221710015E+08, -4.066771178036874E+08, -8.251666187039378E+07,
2460567.500000000, A.D. 2024-Sep-14 00:00:00.0000, 2.128911889170082E+08, -4.031531885773005E+08, -8.327667430401804E+07,
2460574.500000000, A.D. 2024-Sep-21 00:00:00.0000, 2.225145231378692E+08, -3.994326914487722E+08, -8.399607437817448E+07,
2460581.500000000, A.D. 2024-Sep-28 00:00:00.0000, 2.320303278005393E+08, -3.955192266801038E+08, -8.467488702399068E+07,
2460588.500000000, A.D. 2024-Oct-05 00:00:00.0000, 2.414350296253688E+08, -3.914164328672457E+08, -8.531315838970242E+07,
2460595.500000000, A.D. 2024-Oct-12 00:00:00.0000, 2.507251784680976E+08, -3.871279834300103E+08, -8.591095519949959E+07,
2460602.500000000, A.D. 2024-Oct-19 00:00:00.0000, 2.598974462321809E+08, -3.826575824296893E+08, -8.646836402226369E+07,
2460609.500000000, A.D. 2024-Oct-26 00:00:00.0000, 2.689486252892019E+08, -3.780089605134711E+08, -8.698549051357615E+07,
2460616.500000000, A.D. 2024-Nov-02 00:00:00.0000, 2.778756266743873E+08, -3.731858711303471E+08, -8.746245866719691E+07,
2460623.500000000, A.D. 2024-Nov-09 00:00:00.0000, 2.866754781636158E+08, -3.681920869932166E+08, -8.789941008354653E+07,
2460630.500000000, A.D. 2024-Nov-16 00:00:00.0000, 2.953453222679176E+08, -3.630313967821546E+08, -8.829650325805657E+07,
2460637.500000000, A.D. 2024-Nov-23 00:00:00.0000, 3.038824142025594E+08, -3.577076021343130E+08, -8.865391289852847E+07,
2460644.500000000, A.D. 2024-Nov-30 00:00:00.0000, 3.122841200489514E+08, -3.522245149592490E+08, -8.897182929501899E+07,
2460651.500000000, A.D. 2024-Dec-07 00:00:00.0000, 3.205479155382563E+08, -3.465859546560092E+08, -8.925045774732894E+07,
2460658.500000000, A.D. 2024-Dec-14 00:00:00.0000, 3.286713847763427E+08, -3.407957440056607E+08, -8.949001788772193E+07,
2460665.500000000, A.D. 2024-Dec-21 00:00:00.0000, 3.366522165977612E+08, -3.348577049770448E+08, -8.969074278785655E+07,
2460672.500000000, A.D. 2024-Dec-28 00:00:00.0000, 3.444882005260954E+08, -3.287756574079220E+08, -8.985287827294284E+07,
2460679.500000000, A.D. 2025-Jan-04 00:00:00.0000, 3.521772249434838E+08, -3.225534181794259E+08, -8.997668248673573E+07,
2460686.500000000, A.D. 2025-Jan-11 00:00:00.0000, 3.597172756541232E+08, -3.161947992190285E+08, -9.006242540449221E+07,
2460693.500000000, A.D. 2025-Jan-18 00:00:00.0000, 3.671064339303024E+08, -3.097036052462097E+08, -9.011038828465416E+07,
2460700.500000000, A.D. 2025-Jan-25 00:00:00.0000, 3.743428742893424E+08, -3.030836317306255E+08, -9.012086312004657E+07,
2460707.500000000, A.D. 2025-Feb-01 00:00:00.0000, 3.814248621954547E+08, -2.963386630881401E+08, -9.009415210806288E+07,
2460714.500000000, A.D. 2025-Feb-08 00:00:00.0000, 3.883507517490244E+08, -2.894724710904008E+08, -9.003056714320537E+07,
$$EOE